start=new Date('2022-06-07T00:00:00.000Z').valueOf();
sats=[{"MEAN_MOTION_DDOT":"0.0000000000000","PERIOD":"95.592","TLE_LINE2":"2 45391  53.0544 185.3585 0001365  74.6429 285.4711 15.06405508122958","INCLINATION":"53.0544","TLE_LINE1":"1 45391U 20019AH  22157.77896098  .00000594  00000-0  58788-4 0  9993","MEAN_MOTION":"15.06405508","APOAPSIS":"548.142","TIME_SYSTEM":"UTC","FILE":"3484350","RCS_SIZE":"LARGE","GP_ID":"205524014","EPHEMERIS_TYPE":"0","MEAN_ANOMALY":"285.4711","REF_FRAME":"TEME","COUNTRY_CODE":"US","BSTAR":"0.00005878800000","CLASSIFICATION_TYPE":"U","OBJECT_NAME":"STARLINK-1289","ECCENTRICITY":"0.00013650","RA_OF_ASC_NODE":"185.3585","OBJECT_TYPE":"PAYLOAD","ARG_OF_PERICENTER":"74.6429","DECAY_DATE":null,"ELEMENT_SET_NO":"999","REV_AT_EPOCH":"12295","NORAD_CAT_ID":"45391","PERIAPSIS":"546.251","MEAN_MOTION_DOT":"0.00000594","EPOCH":"2022-06-06T18:41:42.228672","OBJECT_ID":"2020-019AH","LAUNCH_DATE":"2020-03-18","CENTER_NAME":"EARTH","SEMIMAJOR_AXIS":"6925.332","MEAN_ELEMENT_THEORY":"SGP4","SITE":"AFETR"},{"NORAD_CAT_ID":"45392","PERIAPSIS":"523.617","MEAN_MOTION_DOT":"0.00003367","EPOCH":"2022-06-06T17:43:42.038400","OBJECT_ID":"2020-019AJ","LAUNCH_DATE":"2020-03-18","CENTER_NAME":"EARTH","SEMIMAJOR_AXIS":"6903.223","MEAN_ELEMENT_THEORY":"SGP4","SITE":"AFETR","ECCENTRICITY":"0.00021310","RA_OF_ASC_NODE":"175.2653","OBJECT_TYPE":"PAYLOAD","ARG_OF_PERICENTER":"23.2735","DECAY_DATE":null,"ELEMENT_SET_NO":"999","REV_AT_EPOCH":"12304","GP_ID":"205524238","MEAN_ANOMALY":"336.8352","EPHEMERIS_TYPE":"0","COUNTRY_CODE":"US","REF_FRAME":"TEME","CLASSIFICATION_TYPE":"U","BSTAR":"0.00020169000000","OBJECT_NAME":"STARLINK-1290","MEAN_MOTION_DDOT":"0.0000000000000","PERIOD":"95.134","TLE_LINE2":"2 45392  52.9942 175.2653 0002131  23.2735 336.8352 15.13647953123048","INCLINATION":"52.9942","TLE_LINE1":"1 45392U 20019AJ  22157.73868100  .00003367  00000-0  20169-3 0  9995","MEAN_MOTION":"15.13647953","APOAPSIS":"526.559","TIME_SYSTEM":"UTC","RCS_SIZE":"LARGE","FILE":"3484350"},{"MEAN_ANOMALY":"288.1145","EPHEMERIS_TYPE":"0","GP_ID":"205523519","COUNTRY_CODE":"US","REF_FRAME":"TEME","BSTAR":"-0.00003610000000","CLASSIFICATION_TYPE":"U","OBJECT_NAME":"STARLINK-1291","PERIOD":"95.592","MEAN_MOTION_DDOT":"0.0000000000000","TLE_LINE2":"2 45393  53.0536 185.2269 0001449  72.0002 288.1145 15.06397098122990","TIME_SYSTEM":"UTC","FILE":"3484350","RCS_SIZE":"LARGE","MEAN_MOTION":"15.06397098","TLE_LINE1":"1 45393U 20019AK  22157.80940633 -.00000819  00000-0 -36100-4 0  9990","INCLINATION":"53.0536","APOAPSIS":"548.226","EPOCH":"2022-06-06T19:25:32.706912","OBJECT_ID":"2020-019AK","NORAD_CAT_ID":"45393","PERIAPSIS":"546.219","MEAN_MOTION_DOT":"-0.00000819","CENTER_NAME":"EARTH","SEMIMAJOR_AXIS":"6925.357","LAUNCH_DATE":"2020-03-18","MEAN_ELEMENT_THEORY":"SGP4","SITE":"AFETR","ECCENTRICITY":"0.00014490","RA_OF_ASC_NODE":"185.2269","OBJECT_TYPE":"PAYLOAD","DECAY_DATE":null,"ARG_OF_PERICENTER":"72.0002","ELEMENT_SET_NO":"999","REV_AT_EPOCH":"12299"},{"NORAD_CAT_ID":"45394","MEAN_MOTION_DOT":"-0.00001169","PERIAPSIS":"546.239","EPOCH":"2022-06-06T18:32:28.178304","OBJECT_ID":"2020-019AL","LAUNCH_DATE":"2020-03-18","CENTER_NAME":"EARTH","SEMIMAJOR_AXIS":"6925.377","MEAN_ELEMENT_THEORY":"SGP4","SITE":"AFETR","ECCENTRICITY":"0.00014480","RA_OF_ASC_NODE":"185.4018","OBJECT_TYPE":"PAYLOAD","ARG_OF_PERICENTER":"68.3892","DECAY_DATE":null,"ELEMENT_SET_NO":"999","REV_AT_EPOCH":"12296","GP_ID":"205523765","EPHEMERIS_TYPE":"0","MEAN_ANOMALY":"291.7251","COUNTRY_CODE":"US","REF_FRAME":"TEME","BSTAR":"-0.00005961300000","CLASSIFICATION_TYPE":"U","OBJECT_NAME":"STARLINK-1292","MEAN_MOTION_DDOT":"0.0000000000000","PERIOD":"95.593","TLE_LINE2":"2 45394  53.0542 185.4018 0001448  68.3892 291.7251 15.06390804122969","TLE_LINE1":"1 45394U 20019AL  22157.77254836 -.00001169  00000-0 -59613-4 0  9993","MEAN_MOTION":"15.06390804","INCLINATION":"53.0542","APOAPSIS":"548.245","TIME_SYSTEM":"UTC","RCS_SIZE":"LARGE","FILE":"3484350"},{"CENTER_NAME":"EARTH","SEMIMAJOR_AXIS":"6925.370","LAUNCH_DATE":"2020-03-18","EPOCH":"2022-06-06T19:14:56.436576","OBJECT_ID":"2020-019AM","NORAD_CAT_ID":"45395","PERIAPSIS":"546.174","MEAN_MOTION_DOT":"-0.00001318","SITE":"AFETR","MEAN_ELEMENT_THEORY":"SGP4","OBJECT_TYPE":"PAYLOAD","ECCENTRICITY":"0.00015330","RA_OF_ASC_NODE":"185.2671","ELEMENT_SET_NO":"999","REV_AT_EPOCH":"12241","DECAY_DATE":null,"ARG_OF_PERICENTER":"73.6938","COUNTRY_CODE":"US","REF_FRAME":"TEME","EPHEMERIS_TYPE":"0","MEAN_ANOMALY":"286.4219","GP_ID":"205524515","OBJECT_NAME":"STARLINK-1297","CLASSIFICATION_TYPE":"U","BSTAR":"-0.00006963800000","TLE_LINE2":"2 45395  53.0522 185.2671 0001533  73.6938 286.4219 15.06392866122411","PERIOD":"95.593","MEAN_MOTION_DDOT":"0.0000000000000","TIME_SYSTEM":"UTC","FILE":"3484350","RCS_SIZE":"LARGE","INCLINATION":"53.0522","TLE_LINE1":"1 45395U 20019AM  22157.80204209 -.00001318  00000-0 -69638-4 0  9991","MEAN_MOTION":"15.06392866","APOAPSIS":"548.297"},{"OBJECT_NAME":"STARLINK-1303","BSTAR":"0.00005416200000","CLASSIFICATION_TYPE":"U","COUNTRY_CODE":"US","REF_FRAME":"TEME","GP_ID":"205492946","EPHEMERIS_TYPE":"0","MEAN_ANOMALY":"292.7692","TLE_LINE1":"1 45396U 20019AN  22157.51820907  .00000525  00000-0  54162-4 0  9992","MEAN_MOTION":"15.06396509","INCLINATION":"53.0534","APOAPSIS":"548.113","TIME_SYSTEM":"UTC","FILE":"3484104","RCS_SIZE":"LARGE","TLE_LINE2":"2 45396  53.0534 186.5299 0001283  67.3432 292.7692 15.06396509122903","MEAN_MOTION_DDOT":"0.0000000000000","PERIOD":"95.592","SITE":"AFETR","MEAN_ELEMENT_THEORY":"SGP4","LAUNCH_DATE":"2020-03-18","CENTER_NAME":"EARTH","SEMIMAJOR_AXIS":"6925.359","NORAD_CAT_ID":"45396","MEAN_MOTION_DOT":"0.00000525","PERIAPSIS":"546.336","EPOCH":"2022-06-06T12:26:13.263648","OBJECT_ID":"2020-019AN","ELEMENT_SET_NO":"999","REV_AT_EPOCH":"12290","ARG_OF_PERICENTER":"67.3432","DECAY_DATE":null,"OBJECT_TYPE":"PAYLOAD","ECCENTRICITY":"0.00012830","RA_OF_ASC_NODE":"186.5299"},{"MEAN_ELEMENT_THEORY":"SGP4","SITE":"AFETR","EPOCH":"2022-06-06T19:04:17.778144","OBJECT_ID":"2020-019AP","NORAD_CAT_ID":"45397","MEAN_MOTION_DOT":"0.00000760","PERIAPSIS":"546.180","CENTER_NAME":"EARTH","SEMIMAJOR_AXIS":"6925.344","LAUNCH_DATE":"2020-03-18","DECAY_DATE":null,"ARG_OF_PERICENTER":"78.9416","ELEMENT_SET_NO":"999","REV_AT_EPOCH":"12305","ECCENTRICITY":"0.00014860","RA_OF_ASC_NODE":"185.2837","OBJECT_TYPE":"PAYLOAD","CLASSIFICATION_TYPE":"U","BSTAR":"0.00006992700000","OBJECT_NAME":"STARLINK-1307","EPHEMERIS_TYPE":"0","MEAN_ANOMALY":"281.1740","GP_ID":"205523019","REF_FRAME":"TEME","COUNTRY_CODE":"US","TIME_SYSTEM":"UTC","FILE":"3484350","RCS_SIZE":"LARGE","TLE_LINE1":"1 45397U 20019AP  22157.79465021  .00000760  00000-0  69927-4 0  9991","MEAN_MOTION":"15.06401389","INCLINATION":"53.0535","APOAPSIS":"548.238","PERIOD":"95.592","MEAN_MOTION_DDOT":"0.0000000000000","TLE_LINE2":"2 45397  53.0535 185.2837 0001486  78.9416 281.1740 15.06401389123050"},{"ELEMENT_SET_NO":"999","REV_AT_EPOCH":"12298","DECAY_DATE":null,"ARG_OF_PERICENTER":"82.9062","OBJECT_TYPE":"PAYLOAD","ECCENTRICITY":"0.00013140","RA_OF_ASC_NODE":"185.3136","SITE":"AFETR","MEAN_ELEMENT_THEORY":"SGP4","CENTER_NAME":"EARTH","SEMIMAJOR_AXIS":"6925.348","LAUNCH_DATE":"2020-03-18","EPOCH":"2022-06-06T18:53:41.358336","OBJECT_ID":"2020-019AQ","NORAD_CAT_ID":"45398","MEAN_MOTION_DOT":"0.00000845","PERIAPSIS":"546.303","TIME_SYSTEM":"UTC","FILE":"3484350","RCS_SIZE":"LARGE","INCLINATION":"53.0548","TLE_LINE1":"1 45398U 20019AQ  22157.78728424  .00000845  00000-0  75583-4 0  9999","MEAN_MOTION":"15.06400178","APOAPSIS":"548.123","TLE_LINE2":"2 45398  53.0548 185.3136 0001314  82.9062 277.2076 15.06400178122984","PERIOD":"95.592","MEAN_MOTION_DDOT":"0.0000000000000","OBJECT_NAME":"STARLINK-1312","CLASSIFICATION_TYPE":"U","BSTAR":"0.00007558300000","COUNTRY_CODE":"US","REF_FRAME":"TEME","MEAN_ANOMALY":"277.2076","EPHEMERIS_TYPE":"0","GP_ID":"205523265"},{"CLASSIFICATION_TYPE":"U","BSTAR":"0.00007626000000","OBJECT_NAME":"STARLINK-1255","GP_ID":"205524015","MEAN_ANOMALY":"316.1381","EPHEMERIS_TYPE":"0","COUNTRY_CODE":"US","REF_FRAME":"TEME","MEAN_MOTION":"15.06388966","TLE_LINE1":"1 45399U 20019AR  22157.76242150  .00000854  00000-0  76260-4 0  9998","INCLINATION":"53.0536","APOAPSIS":"548.575","TIME_SYSTEM":"UTC","FILE":"3484350","RCS_SIZE":"LARGE","MEAN_MOTION_DDOT":"0.0000000000000","PERIOD":"95.593","TLE_LINE2":"2 45399  53.0536 175.4287 0001917  43.9760 316.1381 15.06388966123174","MEAN_ELEMENT_THEORY":"SGP4","SITE":"AFETR","NORAD_CAT_ID":"45399","MEAN_MOTION_DOT":"0.00000854","PERIAPSIS":"545.920","EPOCH":"2022-06-06T18:17:53.217600","OBJECT_ID":"2020-019AR","LAUNCH_DATE":"2020-03-18","CENTER_NAME":"EARTH","SEMIMAJOR_AXIS":"6925.382","ARG_OF_PERICENTER":"43.9760","DECAY_DATE":null,"ELEMENT_SET_NO":"999","REV_AT_EPOCH":"12317","ECCENTRICITY":"0.00019170","RA_OF_ASC_NODE":"175.4287","OBJECT_TYPE":"PAYLOAD"},{"TLE_LINE2":"2 45400  53.0524 175.3680 0001699  54.5929 305.5218 15.06400614123101","MEAN_MOTION_DDOT":"0.0000000000000","PERIOD":"95.592","MEAN_MOTION":"15.06400614","TLE_LINE1":"1 45400U 20019AS  22157.77714063  .00001107  00000-0  93210-4 0  9995","INCLINATION":"53.0524","APOAPSIS":"548.388","TIME_SYSTEM":"UTC","RCS_SIZE":"LARGE","FILE":"3484350","COUNTRY_CODE":"US","REF_FRAME":"TEME","GP_ID":"205524239","EPHEMERIS_TYPE":"0","MEAN_ANOMALY":"305.5218","OBJECT_NAME":"STARLINK-1213","BSTAR":"0.00009321000000","CLASSIFICATION_TYPE":"U","OBJECT_TYPE":"PAYLOAD","ECCENTRICITY":"0.00016990","RA_OF_ASC_NODE":"175.3680","ELEMENT_SET_NO":"999","REV_AT_EPOCH":"12310","ARG_OF_PERICENTER":"54.5929","DECAY_DATE":null,"LAUNCH_DATE":"2020-03-18","CENTER_NAME":"EARTH","SEMIMAJOR_AXIS":"6925.347","NORAD_CAT_ID":"45400","PERIAPSIS":"546.035","MEAN_MOTION_DOT":"0.00001107","EPOCH":"2022-06-06T18:39:04.950432","OBJECT_ID":"2020-019AS","SITE":"AFETR","MEAN_ELEMENT_THEORY":"SGP4"}];
